start=new Date('2023-01-02T00:00:00.000Z').valueOf();
sats=[{"TIME_SYSTEM":"UTC","OBJECT_NAME":"STARLINK-4165","RA_OF_ASC_NODE":"6.2126","INCLINATION":"53.2191","LAUNCH_DATE":"2022-07-24","TLE_LINE2":"2 53286  53.2191   6.2126 0002348  36.9556 323.1597 15.08833392 25576","REV_AT_EPOCH":"2557","ECCENTRICITY":"0.00023480","OBJECT_ID":"2022-086AW","MEAN_ANOMALY":"323.1597","GP_ID":"221935943","OBJECT_TYPE":"PAYLOAD","COUNTRY_CODE":"US","TLE_LINE1":"1 53286U 22086AW  23001.42448447 -.00003683  00000-0 -21343-3 0  9993","DECAY_DATE":null,"SITE":"AFETR","BSTAR":"-0.00021343000000","MEAN_MOTION_DDOT":"0.0000000000000","EPOCH":"2023-01-01T10:11:15.458208","RCS_SIZE":"LARGE","REF_FRAME":"TEME","APOAPSIS":"541.390","FILE":"3728759","ARG_OF_PERICENTER":"36.9556","MEAN_MOTION":"15.08833392","SEMIMAJOR_AXIS":"6917.901","PERIOD":"95.438","EPHEMERIS_TYPE":"0","PERIAPSIS":"538.141","ELEMENT_SET_NO":"999","MEAN_ELEMENT_THEORY":"SGP4","MEAN_MOTION_DOT":"-0.00003683","NORAD_CAT_ID":"53286","CENTER_NAME":"EARTH","CLASSIFICATION_TYPE":"U"},{"ARG_OF_PERICENTER":"32.8808","MEAN_MOTION":"15.08835709","APOAPSIS":"541.331","FILE":"3729001","REF_FRAME":"TEME","RCS_SIZE":"LARGE","CLASSIFICATION_TYPE":"U","NORAD_CAT_ID":"53287","CENTER_NAME":"EARTH","MEAN_ELEMENT_THEORY":"SGP4","MEAN_MOTION_DOT":"-0.00003328","ELEMENT_SET_NO":"999","PERIAPSIS":"538.186","EPHEMERIS_TYPE":"0","PERIOD":"95.438","SEMIMAJOR_AXIS":"6917.894","TLE_LINE2":"2 53287  53.2197   3.6006 0002273  32.8808 327.2326 15.08835709 25505","LAUNCH_DATE":"2022-07-24","INCLINATION":"53.2197","OBJECT_NAME":"STARLINK-4107","RA_OF_ASC_NODE":"3.6006","TIME_SYSTEM":"UTC","MEAN_MOTION_DDOT":"0.0000000000000","EPOCH":"2023-01-02T00:08:31.717824","SITE":"AFETR","TLE_LINE1":"1 53287U 22086AX  23002.00592266 -.00003328  00000-0 -19111-3 0  9994","DECAY_DATE":null,"BSTAR":"-0.00019111000000","COUNTRY_CODE":"US","MEAN_ANOMALY":"327.2326","OBJECT_TYPE":"PAYLOAD","GP_ID":"221994513","ECCENTRICITY":"0.00022730","OBJECT_ID":"2022-086AX","REV_AT_EPOCH":"2550"},{"TLE_LINE1":"1 53288U 22086AY  23002.01694795 -.00001758  00000-0 -92320-4 0  9995","BSTAR":"-0.00009232000000","DECAY_DATE":null,"SITE":"AFETR","MEAN_MOTION_DDOT":"0.0000000000000","EPOCH":"2023-01-02T00:24:24.302880","REV_AT_EPOCH":"2550","ECCENTRICITY":"0.00022350","OBJECT_ID":"2022-086AY","MEAN_ANOMALY":"330.9015","GP_ID":"221994522","OBJECT_TYPE":"PAYLOAD","COUNTRY_CODE":"US","LAUNCH_DATE":"2022-07-24","TLE_LINE2":"2 53288  53.2194   3.5479 0002235  29.2102 330.9015 15.08845342 25501","TIME_SYSTEM":"UTC","OBJECT_NAME":"STARLINK-4162","RA_OF_ASC_NODE":"3.5479","INCLINATION":"53.2194","ELEMENT_SET_NO":"999","MEAN_ELEMENT_THEORY":"SGP4","MEAN_MOTION_DOT":"-0.00001758","NORAD_CAT_ID":"53288","CENTER_NAME":"EARTH","CLASSIFICATION_TYPE":"U","SEMIMAJOR_AXIS":"6917.864","PERIOD":"95.437","PERIAPSIS":"538.183","EPHEMERIS_TYPE":"0","APOAPSIS":"541.275","FILE":"3729001","ARG_OF_PERICENTER":"29.2102","MEAN_MOTION":"15.08845342","RCS_SIZE":"LARGE","REF_FRAME":"TEME"},{"TLE_LINE2":"2 53289  53.2175   0.0244 0002357  30.8803 329.2327 15.08822231 25682","LAUNCH_DATE":"2022-07-24","RA_OF_ASC_NODE":"0.0244","OBJECT_NAME":"STARLINK-4176","INCLINATION":"53.2175","TIME_SYSTEM":"UTC","EPOCH":"2023-01-01T17:09:17.286624","MEAN_MOTION_DDOT":"0.0000000000000","TLE_LINE1":"1 53289U 22086AZ  23001.71478341 -.00005046  00000-0 -29925-3 0  9993","DECAY_DATE":null,"SITE":"AFETR","BSTAR":"-0.00029925000000","GP_ID":"221993066","OBJECT_TYPE":"PAYLOAD","MEAN_ANOMALY":"329.2327","COUNTRY_CODE":"US","REV_AT_EPOCH":"2568","OBJECT_ID":"2022-086AZ","ECCENTRICITY":"0.00023570","FILE":"3728952","APOAPSIS":"541.430","MEAN_MOTION":"15.08822231","ARG_OF_PERICENTER":"30.8803","REF_FRAME":"TEME","RCS_SIZE":"LARGE","NORAD_CAT_ID":"53289","CENTER_NAME":"EARTH","CLASSIFICATION_TYPE":"U","ELEMENT_SET_NO":"999","MEAN_MOTION_DOT":"-0.00005046","MEAN_ELEMENT_THEORY":"SGP4","PERIOD":"95.439","EPHEMERIS_TYPE":"0","PERIAPSIS":"538.169","SEMIMAJOR_AXIS":"6917.935"},{"FILE":"3728759","APOAPSIS":"541.257","MEAN_MOTION":"15.08831940","ARG_OF_PERICENTER":"35.5042","REF_FRAME":"TEME","RCS_SIZE":"LARGE","NORAD_CAT_ID":"53290","CENTER_NAME":"EARTH","CLASSIFICATION_TYPE":"U","ELEMENT_SET_NO":"999","MEAN_MOTION_DOT":"-0.00002925","MEAN_ELEMENT_THEORY":"SGP4","PERIOD":"95.438","PERIAPSIS":"538.283","EPHEMERIS_TYPE":"0","SEMIMAJOR_AXIS":"6917.905","TLE_LINE2":"2 53290  53.2205   5.9642 0002150  35.5042 324.6093 15.08831940 25587","LAUNCH_DATE":"2022-07-24","RA_OF_ASC_NODE":"5.9642","OBJECT_NAME":"STARLINK-4149","INCLINATION":"53.2205","TIME_SYSTEM":"UTC","EPOCH":"2023-01-01T11:30:44.501472","MEAN_MOTION_DDOT":"0.0000000000000","DECAY_DATE":null,"TLE_LINE1":"1 53290U 22086BA  23001.47968173 -.00002925  00000-0 -16578-3 0  9998","BSTAR":"-0.00016578000000","SITE":"AFETR","OBJECT_TYPE":"PAYLOAD","GP_ID":"221935507","MEAN_ANOMALY":"324.6093","COUNTRY_CODE":"US","REV_AT_EPOCH":"2558","OBJECT_ID":"2022-086BA","ECCENTRICITY":"0.00021500"},{"SEMIMAJOR_AXIS":"6917.919","EPHEMERIS_TYPE":"0","PERIAPSIS":"538.018","PERIOD":"95.438","MEAN_ELEMENT_THEORY":"SGP4","MEAN_MOTION_DOT":"-0.00002214","ELEMENT_SET_NO":"999","CLASSIFICATION_TYPE":"U","NORAD_CAT_ID":"53291","CENTER_NAME":"EARTH","RCS_SIZE":"LARGE","REF_FRAME":"TEME","ARG_OF_PERICENTER":"32.6393","MEAN_MOTION":"15.08827372","APOAPSIS":"541.550","FILE":"3729001","ECCENTRICITY":"0.00025530","OBJECT_ID":"2022-086BB","REV_AT_EPOCH":"2557","COUNTRY_CODE":"US","MEAN_ANOMALY":"327.4757","GP_ID":"221994515","OBJECT_TYPE":"PAYLOAD","DECAY_DATE":null,"TLE_LINE1":"1 53291U 22086BB  23002.01283357 -.00002214  00000-0 -12109-3 0  9991","BSTAR":"-0.00012109000000","SITE":"AFETR","MEAN_MOTION_DDOT":"0.0000000000000","EPOCH":"2023-01-02T00:18:28.820448","TIME_SYSTEM":"UTC","INCLINATION":"53.2187","OBJECT_NAME":"STARLINK-4166","RA_OF_ASC_NODE":"358.3332","LAUNCH_DATE":"2022-07-24","TLE_LINE2":"2 53291  53.2187 358.3332 0002553  32.6393 327.4757 15.08827372 25573"},{"REF_FRAME":"TEME","RCS_SIZE":"LARGE","ARG_OF_PERICENTER":"39.6114","MEAN_MOTION":"15.08833326","APOAPSIS":"541.333","FILE":"3728952","EPHEMERIS_TYPE":"0","PERIAPSIS":"538.198","PERIOD":"95.438","SEMIMAJOR_AXIS":"6917.901","CLASSIFICATION_TYPE":"U","CENTER_NAME":"EARTH","NORAD_CAT_ID":"53292","MEAN_ELEMENT_THEORY":"SGP4","MEAN_MOTION_DOT":"-0.00002105","ELEMENT_SET_NO":"999","INCLINATION":"53.2223","OBJECT_NAME":"STARLINK-4159","RA_OF_ASC_NODE":"4.8068","TIME_SYSTEM":"UTC","TLE_LINE2":"2 53292  53.2223   4.8068 0002266  39.6114 320.5043 15.08833326 25627","LAUNCH_DATE":"2022-07-24","COUNTRY_CODE":"US","MEAN_ANOMALY":"320.5043","OBJECT_TYPE":"PAYLOAD","GP_ID":"221992392","ECCENTRICITY":"0.00022660","OBJECT_ID":"2022-086BC","REV_AT_EPOCH":"2562","MEAN_MOTION_DDOT":"0.0000000000000","EPOCH":"2023-01-01T17:43:03.880704","TLE_LINE1":"1 53292U 22086BC  23001.73823936 -.00002105  00000-0 -11422-3 0  9999","DECAY_DATE":null,"SITE":"AFETR","BSTAR":"-0.00011422000000"},{"OBJECT_ID":"2022-086BD","ECCENTRICITY":"0.00019350","REV_AT_EPOCH":"2575","COUNTRY_CODE":"US","GP_ID":"221992617","OBJECT_TYPE":"PAYLOAD","MEAN_ANOMALY":"319.3805","TLE_LINE1":"1 53293U 22086BD  23001.70972148 -.00002609  00000-0 -14592-3 0  9997","SITE":"AFETR","DECAY_DATE":null,"BSTAR":"-0.00014592000000","EPOCH":"2023-01-01T17:01:59.935872","MEAN_MOTION_DDOT":"0.0000000000000","TIME_SYSTEM":"UTC","INCLINATION":"53.2178","RA_OF_ASC_NODE":"354.9406","OBJECT_NAME":"STARLINK-4148","LAUNCH_DATE":"2022-07-24","TLE_LINE2":"2 53293  53.2178 354.9406 0001935  40.7331 319.3805 15.08830209 25751","SEMIMAJOR_AXIS":"6917.910","PERIAPSIS":"538.437","EPHEMERIS_TYPE":"0","PERIOD":"95.438","MEAN_MOTION_DOT":"-0.00002609","MEAN_ELEMENT_THEORY":"SGP4","ELEMENT_SET_NO":"999","CLASSIFICATION_TYPE":"U","NORAD_CAT_ID":"53293","CENTER_NAME":"EARTH","RCS_SIZE":"LARGE","REF_FRAME":"TEME","MEAN_MOTION":"15.08830209","ARG_OF_PERICENTER":"40.7331","FILE":"3728952","APOAPSIS":"541.114"},{"MEAN_MOTION":"15.08827453","ARG_OF_PERICENTER":"34.7789","FILE":"3728759","APOAPSIS":"541.404","REF_FRAME":"TEME","RCS_SIZE":"LARGE","CLASSIFICATION_TYPE":"U","NORAD_CAT_ID":"53294","CENTER_NAME":"EARTH","MEAN_MOTION_DOT":"-0.00003103","MEAN_ELEMENT_THEORY":"SGP4","ELEMENT_SET_NO":"999","EPHEMERIS_TYPE":"0","PERIAPSIS":"538.164","PERIOD":"95.438","SEMIMAJOR_AXIS":"6917.919","TLE_LINE2":"2 53294  53.2201 355.9726 0002342  34.7789 325.3356 15.08827453 25764","LAUNCH_DATE":"2022-07-24","INCLINATION":"53.2201","RA_OF_ASC_NODE":"355.9726","OBJECT_NAME":"STARLINK-4146","TIME_SYSTEM":"UTC","EPOCH":"2023-01-01T11:28:09.086016","MEAN_MOTION_DDOT":"0.0000000000000","DECAY_DATE":null,"TLE_LINE1":"1 53294U 22086BE  23001.47788294 -.00003103  00000-0 -17700-3 0  9993","SITE":"AFETR","BSTAR":"-0.00017700000000","COUNTRY_CODE":"US","OBJECT_TYPE":"PAYLOAD","GP_ID":"221935944","MEAN_ANOMALY":"325.3356","OBJECT_ID":"2022-086BE","ECCENTRICITY":"0.00023420","REV_AT_EPOCH":"2576"},{"SEMIMAJOR_AXIS":"6917.949","PERIAPSIS":"537.816","EPHEMERIS_TYPE":"0","PERIOD":"95.439","MEAN_MOTION_DOT":"0.00013334","MEAN_ELEMENT_THEORY":"SGP4","ELEMENT_SET_NO":"999","CLASSIFICATION_TYPE":"U","NORAD_CAT_ID":"53388","CENTER_NAME":"EARTH","RCS_SIZE":"LARGE","REF_FRAME":"TEME","MEAN_MOTION":"15.08817598","ARG_OF_PERICENTER":"20.2598","FILE":"3728759","APOAPSIS":"541.812","OBJECT_ID":"2022-097A","ECCENTRICITY":"0.00028880","REV_AT_EPOCH":"2325","COUNTRY_CODE":"US","GP_ID":"221935740","OBJECT_TYPE":"PAYLOAD","MEAN_ANOMALY":"339.8509","TLE_LINE1":"1 53388U 22097A   23001.54775669  .00013334  00000-0  85480-3 0  9994","DECAY_DATE":null,"BSTAR":"0.00085480000000","SITE":"AFETR","EPOCH":"2023-01-01T13:08:46.178016","MEAN_MOTION_DDOT":"0.0000000000000","TIME_SYSTEM":"UTC","INCLINATION":"53.2165","RA_OF_ASC_NODE":"305.6848","OBJECT_NAME":"STARLINK-4522","LAUNCH_DATE":"2022-08-10","TLE_LINE2":"2 53388  53.2165 305.6848 0002888  20.2598 339.8509 15.08817598 23258"}];
